{
  "type": "FeatureCollection",
  "features": [
    {
      "type": "Feature",
      "properties": {
        "norad_id": 67019,
        "name": "STARLINK-35688",
        "group": "last-30-days",
        "lat": 48.98565656414617,
        "lon": -39.752641511456495,
        "alt_km": 306.9482410547462,
        "timestamp": "2025-12-22T11:33:19.157659+00:00",
        "meta_object_name": "STARLINK-35688",
        "meta_object_id": "2025-293S",
        "meta_epoch": "2025-12-22T04:00:01.998720",
        "meta_mean_motion": 15.8840849,
        "meta_eccentricity": 0.0003942,
        "meta_inclination": 69.9926,
        "meta_ra_of_asc_node": 296.3866,
        "meta_arg_of_pericenter": 268.9379,
        "meta_mean_anomaly": 145.7117,
        "meta_ephemeris_type": 0,
        "meta_classification_type": "U",
        "meta_norad_cat_id": 67019,
        "meta_element_set_no": 999,
        "meta_rev_at_epoch": 182,
        "meta_bstar": -0.0065644,
        "meta_mean_motion_dot": -0.01602474,
        "meta_mean_motion_ddot": 0,
        "tle_line1": "1 67019U 25293S   25356.16668980 -.01602474  00000+0 -65644-2 0  9991",
        "tle_line2": "2 67019  69.9926 296.3866 0003942 268.9379 145.7117 15.88408490  1822"
      },
      "geometry": {
        "type": "Point",
        "coordinates": [
          -39.752641511456495,
          48.98565656414617
        ]
      }
    },
    {
      "type": "Feature",
      "properties": {
        "norad_id": 67020,
        "name": "STARLINK-36172",
        "group": "last-30-days",
        "lat": 51.472147131191655,
        "lon": -37.29055285064371,
        "alt_km": 306.8176330710676,
        "timestamp": "2025-12-22T11:33:19.157669+00:00",
        "meta_object_name": "STARLINK-36172",
        "meta_object_id": "2025-293T",
        "meta_epoch": "2025-12-22T04:00:01.998720",
        "meta_mean_motion": 15.8834883,
        "meta_eccentricity": 0.0004153,
        "meta_inclination": 69.9926,
        "meta_ra_of_asc_node": 296.3831,
        "meta_arg_of_pericenter": 271.7196,
        "meta_mean_anomaly": 145.9208,
        "meta_ephemeris_type": 0,
        "meta_classification_type": "U",
        "meta_norad_cat_id": 67020,
        "meta_element_set_no": 999,
        "meta_rev_at_epoch": 174,
        "meta_bstar": -0.0064301,
        "meta_mean_motion_dot": -0.015369,
        "meta_mean_motion_ddot": 0,
        "tle_line1": "1 67020U 25293T   25356.16668980 -.01536900  00000+0 -64301-2 0  9992",
        "tle_line2": "2 67020  69.9926 296.3831 0004153 271.7196 145.9208 15.88348830  1745"
      },
      "geometry": {
        "type": "Point",
        "coordinates": [
          -37.29055285064371,
          51.472147131191655
        ]
      }
    },
    {
      "type": "Feature",
      "properties": {
        "norad_id": 67021,
        "name": "STARLINK-36184",
        "group": "last-30-days",
        "lat": 53.699702137170576,
        "lon": -34.789959900124614,
        "alt_km": 306.7532139652785,
        "timestamp": "2025-12-22T11:33:19.157681+00:00",
        "meta_object_name": "STARLINK-36184",
        "meta_object_id": "2025-293U",
        "meta_epoch": "2025-12-22T04:00:01.998720",
        "meta_mean_motion": 15.88302775,
        "meta_eccentricity": 0.0004416,
        "meta_inclination": 69.9925,
        "meta_ra_of_asc_node": 296.3796,
        "meta_arg_of_pericenter": 273.6434,
        "meta_mean_anomaly": 146.7275,
        "meta_ephemeris_type": 0,
        "meta_classification_type": "U",
        "meta_norad_cat_id": 67021,
        "meta_element_set_no": 999,
        "meta_rev_at_epoch": 174,
        "meta_bstar": -0.0063083,
        "meta_mean_motion_dot": -0.01509168,
        "meta_mean_motion_ddot": 0,
        "tle_line1": "1 67021U 25293U   25356.16668980 -.01509168  00000+0 -63083-2 0  9995",
        "tle_line2": "2 67021  69.9925 296.3796 0004416 273.6434 146.7275 15.88302775  1744"
      },
      "geometry": {
        "type": "Point",
        "coordinates": [
          -34.789959900124614,
          53.699702137170576
        ]
      }
    },
    {
      "type": "Feature",
      "properties": {
        "norad_id": 67022,
        "name": "STARLINK-36209",
        "group": "last-30-days",
        "lat": 56.19399602198512,
        "lon": -31.56263920743647,
        "alt_km": 306.50687463641225,
        "timestamp": "2025-12-22T11:33:19.157691+00:00",
        "meta_object_name": "STARLINK-36209",
        "meta_object_id": "2025-293V",
        "meta_epoch": "2025-12-22T04:00:01.998720",
        "meta_mean_motion": 15.88287157,
        "meta_eccentricity": 0.0004123,
        "meta_inclination": 69.9924,
        "meta_ra_of_asc_node": 296.3761,
        "meta_arg_of_pericenter": 270.1787,
        "meta_mean_anomaly": 153.3271,
        "meta_ephemeris_type": 0,
        "meta_classification_type": "U",
        "meta_norad_cat_id": 67022,
        "meta_element_set_no": 999,
        "meta_rev_at_epoch": 174,
        "meta_bstar": -0.006397,
        "meta_mean_motion_dot": -0.01525998,
        "meta_mean_motion_ddot": 0,
        "tle_line1": "1 67022U 25293V   25356.16668980 -.01525998  00000+0 -63970-2 0  9990",
        "tle_line2": "2 67022  69.9924 296.3761 0004123 270.1787 153.3271 15.88287157  1740"
      },
      "geometry": {
        "type": "Point",
        "coordinates": [
          -31.56263920743647,
          56.19399602198512
        ]
      }
    },
    {
      "type": "Feature",
      "properties": {
        "norad_id": 67023,
        "name": "STARLINK-36191",
        "group": "last-30-days",
        "lat": 58.20189191240884,
        "lon": -28.53906039898259,
        "alt_km": 306.43672056277865,
        "timestamp": "2025-12-22T11:33:19.157703+00:00",
        "meta_object_name": "STARLINK-36191",
        "meta_object_id": "2025-293W",
        "meta_epoch": "2025-12-22T04:00:01.998720",
        "meta_mean_motion": 15.88274411,
        "meta_eccentricity": 0.0004227,
        "meta_inclination": 69.9924,
        "meta_ra_of_asc_node": 296.3723,
        "meta_arg_of_pericenter": 269.9917,
        "meta_mean_anomaly": 156.1216,
        "meta_ephemeris_type": 0,
        "meta_classification_type": "U",
        "meta_norad_cat_id": 67023,
        "meta_element_set_no": 999,
        "meta_rev_at_epoch": 163,
        "meta_bstar": -0.0064438,
        "meta_mean_motion_dot": -0.01534863,
        "meta_mean_motion_ddot": 0,
        "tle_line1": "1 67023U 25293W   25356.16668980 -.01534863  00000+0 -64438-2 0  9992",
        "tle_line2": "2 67023  69.9924 296.3723 0004227 269.9917 156.1216 15.88274411  1632"
      },
      "geometry": {
        "type": "Point",
        "coordinates": [
          -28.53906039898259,
          58.20189191240884
        ]
      }
    },
    {
      "type": "Feature",
      "properties": {
        "norad_id": 67024,
        "name": "STARLINK-36192",
        "group": "last-30-days",
        "lat": 60.46059732344454,
        "lon": -24.52021582563114,
        "alt_km": 305.57998762334773,
        "timestamp": "2025-12-22T11:33:19.157713+00:00",
        "meta_object_name": "STARLINK-36192",
        "meta_object_id": "2025-293X",
        "meta_epoch": "2025-12-21T14:00:01.999872",
        "meta_mean_motion": 15.90313058,
        "meta_eccentricity": 0.00042776,
        "meta_inclination": 69.9924,
        "meta_ra_of_asc_node": 298.0577,
        "meta_arg_of_pericenter": 262.9237,
        "meta_mean_anomaly": 69.5662,
        "meta_ephemeris_type": 0,
        "meta_classification_type": "U",
        "meta_norad_cat_id": 67024,
        "meta_element_set_no": 999,
        "meta_rev_at_epoch": 164,
        "meta_bstar": -0.0057924609,
        "meta_mean_motion_dot": -0.01754495,
        "meta_mean_motion_ddot": 0.00083981989,
        "tle_line1": "1 67024U 25293X   25355.58335648 -.01754495  83982-3 -57925-2 0  9992",
        "tle_line2": "2 67024  69.9924 298.0577 0004277 262.9237  69.5662 15.90313058  1649"
      },
      "geometry": {
        "type": "Point",
        "coordinates": [
          -24.52021582563114,
          60.46059732344454
        ]
      }
    },
    {
      "type": "Feature",
      "properties": {
        "norad_id": 67025,
        "name": "STARLINK-36178",
        "group": "last-30-days",
        "lat": 62.041282363297995,
        "lon": -21.187954384026305,
        "alt_km": 306.19321951260736,
        "timestamp": "2025-12-22T11:33:19.157723+00:00",
        "meta_object_name": "STARLINK-36178",
        "meta_object_id": "2025-293Y",
        "meta_epoch": "2025-12-22T04:00:01.998720",
        "meta_mean_motion": 15.88208796,
        "meta_eccentricity": 0.000422,
        "meta_inclination": 69.9925,
        "meta_ra_of_asc_node": 296.3662,
        "meta_arg_of_pericenter": 271.3591,
        "meta_mean_anomaly": 160.1122,
        "meta_ephemeris_type": 0,
        "meta_classification_type": "U",
        "meta_norad_cat_id": 67025,
        "meta_element_set_no": 999,
        "meta_rev_at_epoch": 174,
        "meta_bstar": -0.0063431,
        "meta_mean_motion_dot": -0.0150992,
        "meta_mean_motion_ddot": 0,
        "tle_line1": "1 67025U 25293Y   25356.16668980 -.01509920  00000+0 -63431-2 0  9992",
        "tle_line2": "2 67025  69.9925 296.3662 0004220 271.3591 160.1122 15.88208796  1741"
      },
      "geometry": {
        "type": "Point",
        "coordinates": [
          -21.187954384026305,
          62.041282363297995
        ]
      }
    }
  ]
}